[{"OBJECT_NAME":"STARLINK-4767","OBJECT_ID":"2022-114AJ","EPOCH":"2026-02-04T06:46:27.892992","MEAN_MOTION":15.08819951,"ECCENTRICITY":0.00012674,"INCLINATION":53.2171,"RA_OF_ASC_NODE":83.7068,"ARG_OF_PERICENTER":92.6015,"MEAN_ANOMALY":267.5123,"EPHEMERIS_TYPE":0,"CLASSIFICATION_TYPE":"U","NORAD_CAT_ID":53850,"ELEMENT_SET_NO":999,"REV_AT_EPOCH":18793,"BSTAR":0.00025511769,"MEAN_MOTION_DOT":3.772e-5,"MEAN_MOTION_DDOT":0},{"OBJECT_NAME":"STARLINK-4755","OBJECT_ID":"2022-114AK","EPOCH":"2026-02-04T07:07:41.399616","MEAN_MOTION":15.08834408,"ECCENTRICITY":0.00013544,"INCLINATION":53.2176,"RA_OF_ASC_NODE":83.8031,"ARG_OF_PERICENTER":96.2416,"MEAN_ANOMALY":263.8731,"EPHEMERIS_TYPE":0,"CLASSIFICATION_TYPE":"U","NORAD_CAT_ID":53851,"ELEMENT_SET_NO":999,"REV_AT_EPOCH":18793,"BSTAR":-1.1897799e-5,"MEAN_MOTION_DOT":-4.77e-6,"MEAN_MOTION_DDOT":0},{"OBJECT_NAME":"STARLINK-4797","OBJECT_ID":"2022-114AL","EPOCH":"2026-02-04T07:26:55.412448","MEAN_MOTION":15.08856449,"ECCENTRICITY":0.00013761,"INCLINATION":53.2174,"RA_OF_ASC_NODE":78.9019,"ARG_OF_PERICENTER":91.8825,"MEAN_ANOMALY":268.2325,"EPHEMERIS_TYPE":0,"CLASSIFICATION_TYPE":"U","NORAD_CAT_ID":53852,"ELEMENT_SET_NO":999,"REV_AT_EPOCH":18800,"BSTAR":-0.00022398865,"MEAN_MOTION_DOT":-3.853e-5,"MEAN_MOTION_DDOT":0},{"OBJECT_NAME":"STARLINK-4794","OBJECT_ID":"2022-114AM","EPOCH":"2026-02-04T06:57:04.654944","MEAN_MOTION":15.0883364,"ECCENTRICITY":0.00014996,"INCLINATION":53.2189,"RA_OF_ASC_NODE":83.7585,"ARG_OF_PERICENTER":104.2998,"MEAN_ANOMALY":255.8161,"EPHEMERIS_TYPE":0,"CLASSIFICATION_TYPE":"U","NORAD_CAT_ID":53853,"ELEMENT_SET_NO":999,"REV_AT_EPOCH":18793,"BSTAR":-1.2328057e-5,"MEAN_MOTION_DOT":-4.84e-6,"MEAN_MOTION_DDOT":0},{"OBJECT_NAME":"STARLINK-4800","OBJECT_ID":"2022-114AN","EPOCH":"2026-02-04T06:31:59.881440","MEAN_MOTION":15.08840531,"ECCENTRICITY":0.00015603,"INCLINATION":53.217,"RA_OF_ASC_NODE":74.3681,"ARG_OF_PERICENTER":105.6876,"MEAN_ANOMALY":254.4288,"EPHEMERIS_TYPE":0,"CLASSIFICATION_TYPE":"U","NORAD_CAT_ID":53854,"ELEMENT_SET_NO":999,"REV_AT_EPOCH":18806,"BSTAR":-4.3943627e-5,"MEAN_MOTION_DOT":-9.87e-6,"MEAN_MOTION_DDOT":0},{"OBJECT_NAME":"STARLINK-4703","OBJECT_ID":"2022-114AP","EPOCH":"2026-02-04T07:03:45.901728","MEAN_MOTION":15.08832732,"ECCENTRICITY":0.00013492,"INCLINATION":53.2173,"RA_OF_ASC_NODE":83.7819,"ARG_OF_PERICENTER":98.3535,"MEAN_ANOMALY":261.7611,"EPHEMERIS_TYPE":0,"CLASSIFICATION_TYPE":"U","NORAD_CAT_ID":53855,"ELEMENT_SET_NO":999,"REV_AT_EPOCH":18793,"BSTAR":-1.261789e-5,"MEAN_MOTION_DOT":-4.89e-6,"MEAN_MOTION_DDOT":0},{"OBJECT_NAME":"STARLINK-4795","OBJECT_ID":"2022-114AQ","EPOCH":"2026-02-04T07:46:10.517376","MEAN_MOTION":15.08837319,"ECCENTRICITY":0.00015732,"INCLINATION":53.2166,"RA_OF_ASC_NODE":73.9879,"ARG_OF_PERICENTER":103.3944,"MEAN_ANOMALY":256.7224,"EPHEMERIS_TYPE":0,"CLASSIFICATION_TYPE":"U","NORAD_CAT_ID":53856,"ELEMENT_SET_NO":999,"REV_AT_EPOCH":18807,"BSTAR":0.00014014101,"MEAN_MOTION_DOT":1.943e-5,"MEAN_MOTION_DDOT":0},{"OBJECT_NAME":"STARLINK-4809","OBJECT_ID":"2022-114AR","EPOCH":"2026-02-04T06:41:09.311136","MEAN_MOTION":15.08839614,"ECCENTRICITY":0.00012017,"INCLINATION":53.2182,"RA_OF_ASC_NODE":83.6842,"ARG_OF_PERICENTER":86.8774,"MEAN_ANOMALY":273.2356,"EPHEMERIS_TYPE":0,"CLASSIFICATION_TYPE":"U","NORAD_CAT_ID":53857,"ELEMENT_SET_NO":999,"REV_AT_EPOCH":18793,"BSTAR":3.3572599e-5,"MEAN_MOTION_DOT":2.47e-6,"MEAN_MOTION_DDOT":0},{"OBJECT_NAME":"STARLINK-4798","OBJECT_ID":"2022-114AS","EPOCH":"2026-02-04T06:26:41.735040","MEAN_MOTION":15.08830457,"ECCENTRICITY":0.00013265,"INCLINATION":53.2171,"RA_OF_ASC_NODE":74.3498,"ARG_OF_PERICENTER":97.2118,"MEAN_ANOMALY":262.9025,"EPHEMERIS_TYPE":0,"CLASSIFICATION_TYPE":"U","NORAD_CAT_ID":53858,"ELEMENT_SET_NO":999,"REV_AT_EPOCH":18806,"BSTAR":1.0821904e-5,"MEAN_MOTION_DOT":-1.16e-6,"MEAN_MOTION_DDOT":0},{"OBJECT_NAME":"STARLINK-4790","OBJECT_ID":"2022-114AT","EPOCH":"2026-02-04T06:49:47.279136","MEAN_MOTION":15.08833096,"ECCENTRICITY":0.00014283,"INCLINATION":53.219,"RA_OF_ASC_NODE":78.7393,"ARG_OF_PERICENTER":103.466,"MEAN_ANOMALY":256.6492,"EPHEMERIS_TYPE":0,"CLASSIFICATION_TYPE":"U","NORAD_CAT_ID":53859,"ELEMENT_SET_NO":999,"REV_AT_EPOCH":18800,"BSTAR":9.112946e-6,"MEAN_MOTION_DOT":-1.43e-6,"MEAN_MOTION_DDOT":0},{"OBJECT_NAME":"STARLINK-4799","OBJECT_ID":"2022-114AU","EPOCH":"2026-02-04T06:16:04.586016","MEAN_MOTION":15.08840641,"ECCENTRICITY":0.00013316,"INCLINATION":53.2165,"RA_OF_ASC_NODE":74.298,"ARG_OF_PERICENTER":104.0777,"MEAN_ANOMALY":256.0363,"EPHEMERIS_TYPE":0,"CLASSIFICATION_TYPE":"U","NORAD_CAT_ID":53860,"ELEMENT_SET_NO":999,"REV_AT_EPOCH":18782,"BSTAR":-6.00071e-7,"MEAN_MOTION_DOT":-2.97e-6,"MEAN_MOTION_DDOT":0},{"OBJECT_NAME":"STARLINK-4781","OBJECT_ID":"2022-114AV","EPOCH":"2026-02-04T06:21:23.358816","MEAN_MOTION":15.08835081,"ECCENTRICITY":0.00013842,"INCLINATION":53.2176,"RA_OF_ASC_NODE":74.3293,"ARG_OF_PERICENTER":99.2697,"MEAN_ANOMALY":260.8452,"EPHEMERIS_TYPE":0,"CLASSIFICATION_TYPE":"U","NORAD_CAT_ID":53861,"ELEMENT_SET_NO":999,"REV_AT_EPOCH":18806,"BSTAR":1.2948165e-5,"MEAN_MOTION_DOT":-8.2e-7,"MEAN_MOTION_DDOT":0},{"OBJECT_NAME":"STARLINK-4788","OBJECT_ID":"2022-114AX","EPOCH":"2026-02-04T07:40:51.105216","MEAN_MOTION":15.0883653,"ECCENTRICITY":0.00014495,"INCLINATION":53.2182,"RA_OF_ASC_NODE":73.9605,"ARG_OF_PERICENTER":97.767,"MEAN_ANOMALY":262.3487,"EPHEMERIS_TYPE":0,"CLASSIFICATION_TYPE":"U","NORAD_CAT_ID":53863,"ELEMENT_SET_NO":999,"REV_AT_EPOCH":18807,"BSTAR":-1.3106139e-5,"MEAN_MOTION_DOT":-4.97e-6,"MEAN_MOTION_DDOT":0},{"OBJECT_NAME":"STARLINK-4779","OBJECT_ID":"2022-114AY","EPOCH":"2026-02-04T06:37:10.788384","MEAN_MOTION":15.08839527,"ECCENTRICITY":0.00014602,"INCLINATION":53.2169,"RA_OF_ASC_NODE":73.688,"ARG_OF_PERICENTER":87.9363,"MEAN_ANOMALY":272.1796,"EPHEMERIS_TYPE":0,"CLASSIFICATION_TYPE":"U","NORAD_CAT_ID":53864,"ELEMENT_SET_NO":999,"REV_AT_EPOCH":18807,"BSTAR":3.0852814e-5,"MEAN_MOTION_DOT":2.03e-6,"MEAN_MOTION_DDOT":0},{"OBJECT_NAME":"STARLINK-4762","OBJECT_ID":"2022-114BA","EPOCH":"2026-02-04T06:24:02.501568","MEAN_MOTION":15.08839122,"ECCENTRICITY":0.00013517,"INCLINATION":53.2181,"RA_OF_ASC_NODE":54.369,"ARG_OF_PERICENTER":95.9636,"MEAN_ANOMALY":264.151,"EPHEMERIS_TYPE":0,"CLASSIFICATION_TYPE":"U","NORAD_CAT_ID":53866,"ELEMENT_SET_NO":999,"REV_AT_EPOCH":18834,"BSTAR":-2.95094e-7,"MEAN_MOTION_DOT":-2.93e-6,"MEAN_MOTION_DDOT":0},{"OBJECT_NAME":"STARLINK-4793","OBJECT_ID":"2022-114BB","EPOCH":"2026-02-04T07:42:11.022624","MEAN_MOTION":15.08838274,"ECCENTRICITY":0.00012277,"INCLINATION":53.2167,"RA_OF_ASC_NODE":63.9822,"ARG_OF_PERICENTER":84.8768,"MEAN_ANOMALY":275.2364,"EPHEMERIS_TYPE":0,"CLASSIFICATION_TYPE":"U","NORAD_CAT_ID":53867,"ELEMENT_SET_NO":999,"REV_AT_EPOCH":18821,"BSTAR":5.6383509e-5,"MEAN_MOTION_DOT":6.1e-6,"MEAN_MOTION_DDOT":0}]
