STARLINK-4767           
1 53850U 22114AJ  26035.28226728  .00003772  00000+0  25512-3 0  9990
2 53850  53.2171  83.7068 0001267  92.6015 267.5123 15.08819951187934
STARLINK-4755           
1 53851U 22114AK  26035.29700694 -.00000477  00000+0 -11898-4 0  9995
2 53851  53.2176  83.8031 0001354  96.2416 263.8731 15.08834408187931
STARLINK-4797           
1 53852U 22114AL  26035.31036357 -.00003853  00000+0 -22399-3 0  9995
2 53852  53.2174  78.9019 0001376  91.8825 268.2325 15.08856449188006
STARLINK-4794           
1 53853U 22114AM  26035.28963721 -.00000484  00000+0 -12328-4 0  9995
2 53853  53.2189  83.7585 0001499 104.2998 255.8161 15.08833640187930
STARLINK-4800           
1 53854U 22114AN  26035.27222085 -.00000987  00000+0 -43944-4 0  9992
2 53854  53.2170  74.3681 0001560 105.6876 254.4288 15.08840531188060
STARLINK-4703           
1 53855U 22114AP  26035.29428127 -.00000489  00000+0 -12618-4 0  9991
2 53855  53.2173  83.7819 0001349  98.3535 261.7611 15.08832732187936
STARLINK-4795           
1 53856U 22114AQ  26035.32373284  .00001943  00000+0  14014-3 0  9994
2 53856  53.2166  73.9879 0001573 103.3944 256.7224 15.08837319188072
STARLINK-4809           
1 53857U 22114AR  26035.27857999  .00000247  00000+0  33573-4 0  9997
2 53857  53.2182  83.6842 0001201  86.8774 273.2356 15.08839614187937
STARLINK-4798           
1 53858U 22114AS  26035.26853860 -.00000116  00000+0  10822-4 0  9998
2 53858  53.2171  74.3498 0001326  97.2118 262.9025 15.08830457188065
STARLINK-4790           
1 53859U 22114AT  26035.28457499 -.00000143  00000+0  91129-5 0  9999
2 53859  53.2190  78.7393 0001428 103.4660 256.6492 15.08833096188008
STARLINK-4799           
1 53860U 22114AU  26035.26116419 -.00000297  00000+0 -60007-6 0  9996
2 53860  53.2165  74.2980 0001331 104.0777 256.0363 15.08840641187828
STARLINK-4781           
1 53861U 22114AV  26035.26485369 -.00000082  00000+0  12948-4 0  9990
2 53861  53.2176  74.3293 0001384  99.2697 260.8452 15.08835081188064
STARLINK-4788           
1 53863U 22114AX  26035.32003594 -.00000497  00000+0 -13106-4 0  9993
2 53863  53.2182  73.9605 0001449  97.7670 262.3487 15.08836530188077
STARLINK-4779           
1 53864U 22114AY  26035.27581931  .00000203  00000+0  30853-4 0  9995
2 53864  53.2169  73.6880 0001460  87.9363 272.1796 15.08839527188079
STARLINK-4762           
1 53866U 22114BA  26035.26669562 -.00000293  00000+0 -29509-6 0  9992
2 53866  53.2181  54.3690 0001351  95.9636 264.1510 15.08839122188347
STARLINK-4793           
1 53867U 22114BB  26035.32096091  .00000610  00000+0  56384-4 0  9991
2 53867  53.2167  63.9822 0001227  84.8768 275.2364 15.08838274188213
